1 44261U 19029AC  20055.22366180 -.00009240 +00000-0 -51454-3 0  9997
2 44261 053.0026 008.5838 0001346 085.3678 274.7467 15.12067566040873
1 44261U 19029AC  20055.88458719 +.00000669 +00000-0 +55501-4 0  9991
2 44261 053.0022 005.5866 0001696 059.0972 301.0186 15.12091146040974
1 44261U 19029AC  20055.91667824  .00007561  00000-0  45047-3 0  9995
2 44261  53.0027   5.4385 0001665  61.3283 113.6549 15.12122878 41913
1 44261U 19029AC  20056.58334491 -.00006122  00000-0 -33447-3 0  9995
2 44261  53.0024   2.4157 0001675  58.5190 147.5804 15.12122414 42018
1 44261U 19029AC  20056.91667824 +.00095762 +00000-0 +54403-2 0  9991
2 44261 053.0025 000.9045 0001665 063.8984 157.7547 15.12111091001760
1 44261U 19029AC  20057.08334491 -.00027636  00000-0 -15730-2 0  9998
2 44261  53.0022   0.1496 0001697  55.9503 353.5043 15.12160446 42099
1 44261U 19029AC  20057.58334491 +.00065796 +00000-0 +37562-2 0  9997
2 44261 053.0022 357.8813 0001607 059.2679 193.5834 15.12137390042166
1 44261U 19029AC  20058.19790115 -.00005179  00000-0 -28023-3 0  9998
2 44261  53.0025 355.0962 0001583  94.8327 265.2844 15.12131007 42260
1 44261U 19029AC  20058.25001157  .00137981  00000-0  77921-2 0  9991
2 44261  53.0018 354.8600 0001660  53.5042 230.5165 15.12078922 42267
1 44261U 19029AC  20058.83334491  .00230023  00000-0  12812-1 0  9993
2 44261  53.0016 352.2132 0001520  64.8803 156.3576 15.12078092 42351
1 44261U 19029AC  20058.91667824 -.00019371  00000-0 -10970-2 0  9998
2 44261  53.0016 351.8358 0001601  60.7533 254.3654 15.12134067 42374
1 44261U 19029AC  20059.51980742 -.00001798 +00000-0 -86136-4 0  9995
2 44261 053.0029 349.1018 0001298 075.7563 284.3572 15.12115251041524
1 44261U 19029AC  20059.75001157  .00374598  00000-0  20453-1 0  9991
2 44261  53.0011 348.0562 0001547  65.7850 108.2490 15.12041752 42496
1 44261U 19029AC  20059.83334491 +.00237526 +00000-0 +13214-1 0  9996
2 44261 053.0012 347.6787 0001638 065.9588 201.9557 15.12081998001803
1 44261U 19029AC  20059.91667824 +.00050013 +00000-0 +28665-2 0  9995
2 44261 053.0013 347.3013 0001698 062.3980 299.4013 15.12125378001761
1 44261U 19029AC  20060.25001157  .00051435  00000-0  29487-2 0  9997
2 44261  53.0011 345.7909 0001842  54.8015 322.5714 15.12103788 42572
1 44261U 19029AC  20060.41667824 -.00032588  00000-0 -18601-2 0  9990
2 44261  53.0011 345.0342 0001809  56.4697 148.6739 15.12143117 42599
1 44261U 19029AC  20060.91667824 -.00029842 +00000-0 -17012-2 0  9999
2 44261 053.0012 342.7666 0001855 061.1304 347.3582 15.12144486001771
1 44261U 19029AC  20061.25001157  .00038215  00000-0  21987-2 0  9996
2 44261  53.0012 341.2561 0001953  55.0787   8.9899 15.12112303 42729
1 44261U 19029AC  20061.58334491 +.00122877 +00000-0 +69524-2 0  9999
2 44261 053.0015 339.7426 0001795 062.0111 017.6324 15.12095958001762
1 44261U 19029AC  20061.91667824 -.00028934  00000-0 -16484-2 0  9993
2 44261  53.0015 338.2317 0001979  61.2925  33.9098 15.12150904 42827
1 44261U 19029AC  20062.58334491 +.00047609 +00000-0 +27311-2 0  9997
2 44261 053.0020 335.2076 0001938 062.2052 064.1648 15.12116252042925
1 44261U 19029AC  20062.91667824 -.00028015 +00000-0 -15951-2 0  9992
2 44261 053.0021 333.6968 0002083 061.9511 079.9883 15.12155151001769
1 44261U 19029AC  20063.58334491 +.00290886 +00000-0 +16061-1 0  9994
2 44261 053.0024 330.6726 0001957 063.8727 109.2550 15.12074224001769
1 44261U 19029AC  20063.88205036 -.00000221 +00000-0 +44200-5 0  9992
2 44261 053.0026 329.3189 0001705 075.6836 284.4344 15.12146824042186
1 44261U 19029AC  20063.91667824 -.00029779  00000-0 -16971-2 0  9994
2 44261  53.0027 329.1621 0002133  62.7847 125.9131 15.12153084 43125
1 44261U 19029AC  20064.25001157  .00014642  00000-0  85571-3 0  9997
2 44261  53.0027 327.6511 0002110  57.6804 146.5709 15.12113480 43178
1 44261U 19029AC  20064.58334491  .00370384  00000-0  20239-1 0  9999
2 44261  53.0029 326.1379 0001911  63.9707 155.8533 15.12035499 43223
1 44261U 19029AC  20064.91667824  .00109153  00000-0  61883-2 0  9990
2 44261  53.0030 324.6277 0002048  63.5476 171.8068 15.12103665 43273
1 44261U 19029AC  20065.25001157 +.00026672 +00000-0 +15420-2 0  9999
2 44261 053.0029 323.1166 0002112 059.7303 191.1789 15.12116531043327
1 44261U 19029AC  20065.83334491  .00034428  00000-0  19828-2 0  9997
2 44261  53.0034 320.4708 0002050  66.7641 121.3716 15.12126109 43416
1 44261U 19029AC  20065.91667824 -.00012742 +00000-0 -71512-3 0  9991
2 44261 053.0031 320.0934 0002102 064.6054 217.4223 15.12129728001765
1 44261U 19029AC  20066.12930696 -.00003672  00000-0 -19374-3 0  9995
2 44261  53.0016 319.1300 0001790  87.3584 272.7612 15.12116761 43468
1 44261U 19029AC  20066.58334491  .00070754  00000-0  40398-2 0  9998
2 44261  53.0030 317.0693 0002020  69.7041 243.4582 15.12095460 43536
1 44261U 19029AC  20066.91667824 -.00024402  00000-0 -13872-2 0  9992
2 44261  53.0029 315.5593 0002136  66.7129 262.0046 15.12135596 43580
1 44261U 19029AC  20067.00001157 -.00010758 +00000-0 -60100-3 0  9990
2 44261 053.0028 315.1818 0002183 065.9109 356.7003 15.12127059001769
1 44261U 19029AC  20067.41667824  .00075279  00000-0  42923-2 0  9993
2 44261  53.0026 313.2912 0002042  69.1634 102.9045 15.12112629 43652
1 44261U 19029AC  20067.58334491  .00220163  00000-0  12284-1 0  9992
2 44261  53.0024 312.5350 0002031  73.5477 286.3117 15.12068294 43688
1 44261U 19029AC  20068.16667824 +.00026633 +00000-0 +15398-2 0  9992
2 44261 053.0018 309.8919 0002173 066.7071 230.3844 15.12115526043768
1 44261U 19029AC  20068.83334491 -.00026567  00000-0 -15120-2 0  9998
2 44261  53.0016 306.8682 0002190  72.8780 255.3417 15.12142544 43879
1 44261U 19029AC  20069.58335648  .00113320  00000-0  64213-2 0  9995
2 44261  53.0009 303.4659 0002170  76.8930  16.4274 15.12097028 43982
1 44261U 19029AC  20069.89671479 +.00001718 +00000-0 +11562-3 0  9991
2 44261 053.0014 302.0460 0002262 070.9352 289.1883 15.12136647043096
1 44261U 19029AC  20069.91667824 -.00020796  00000-0 -11791-2 0  9995
2 44261  53.0007 301.9561 0002313  72.4925  36.3292 15.12134842 44034
1 44261U 19029AC  20070.25001157 -.00029356 +00000-0 -16730-2 0  9994
2 44261 053.0006 300.4440 0002279 071.5371 052.8491 15.12145748001763
1 44261U 19029AC  20070.58334491  .00168016  00000-0  94414-2 0  9990
2 44261  53.0006 298.9310 0002220  77.6915  62.2771 15.12091081 44131
1 44261U 19029AC  20070.75001157 -.00016108  00000-0 -90852-3 0  9998
2 44261  53.0007 298.1759 0002315  76.5591 251.1846 15.12146392 44165
1 44261U 19029AC  20070.88811521 +.00004610 +00000-0 +28113-3 0  9990
2 44261 053.0012 297.5501 0002044 072.2136 287.9077 15.12165681043249
1 44261U 19029AC  20073.91667824  .00016489  00000-0  96147-3 0  9991
2 44261  53.0019 283.8156 0002411  74.9356 220.7011 15.12105028 44637
1 44261U 19029AC  20074.25001157 -.00032608 +00000-0 -18618-2 0  9999
2 44261 053.0021 282.3031 0002316 077.0807 234.0981 15.12131669001755
1 44261U 19029AC  20074.91667824 +.00009623 +00000-0 +56826-3 0  9994
2 44261 053.0024 279.2810 0002285 076.1733 266.1547 15.12138850001811
1 44261U 19029AC  20075.91667824 +.00014516 +00000-0 +84859-3 0  9999
2 44261 053.0024 274.7464 0002106 077.6462 311.4385 15.12108661044945
1 44261U 19029AC  20076.25001157 -.00030089 +00000-0 -17161-2 0  9994
2 44261 053.0023 273.2336 0002018 081.6462 322.9885 15.12131029001773
1 44261U 19029AC  20076.83670393 -.00001478 +00000-0 -67695-4 0  9991
2 44261 053.0001 270.5738 0002088 082.3611 277.7616 15.12121754044147
1 44261U 19029AC  20076.91667824  .00036016  00000-0  20743-2 0  9990
2 44261  53.0020 270.2121 0002059  80.0619 355.6969 15.12103419 45092
1 44261U 19029AC  20077.49765456 -.00001822 +00000-0 -87443-4 0  9995
2 44261 053.0003 267.5770 0002250 076.4940 283.6301 15.12124509044240
1 44261U 19029AC  20077.58334491  .00162781  00000-0  91532-2 0  9998
2 44261  53.0015 267.1877 0001964  88.0190  18.8490 15.12096193 45193
1 44261U 19029AC  20077.91667824  .00039233  00000-0  22572-2 0  9997
2 44261  53.0013 265.6777 0002036  82.2724  40.1635 15.12101143 45240
1 44261U 19029AC  20078.25001157 -.00000534 +00000-0 -13508-4 0  9991
2 44261 053.0010 264.1648 0001979 087.7560 050.2328 15.12121891001763
1 44261U 19029AC  20078.58334491  .00158865  00000-0  89380-2 0  9995
2 44261  53.0008 262.6533 0001981  89.3469  64.1989 15.12097438 45343
1 44261U 19029AC  20078.91667824  .00035772  00000-0  20606-2 0  9998
2 44261  53.0005 261.1433 0002036  83.9419  85.1727 15.12100775 45397
1 44261U 19029AC  20079.75001157 -.00023970  00000-0 -13625-2 0  9994
2 44261  52.9999 257.3639 0002072  87.3148 300.6937 15.12130328 45529
1 44261U 19029AC  20079.91667824 +.00041818 +00000-0 +24039-2 0  9991
2 44261 053.0000 256.6086 0002042 084.7446 131.0525 15.12101186001757
1 44261U 19029AC  20080.25001157  .00090088  00000-0  51241-2 0  9999
2 44261  53.0000 255.0952 0001969  89.1172 142.2407 15.12103203 45599
1 44261U 19029AC  20080.66667824  .00036342  00000-0  20915-2 0  9990
2 44261  52.9997 253.2065 0002055  88.9096 251.8969 15.12125919 45662
1 44261U 19029AC  20082.25001157  .00192455  00000-0  10776-1 0  9999
2 44261  53.0003 246.0250 0001977  89.5086 235.2656 15.12088557 45908
1 44261U 19029AC  20082.58334491  .00116505  00000-0  65938-2 0  9998
2 44261  53.0004 244.5139 0002039  90.1356 250.2025 15.12122182 45951
1 44261U 19029AC  20082.66667824 -.00030612  00000-0 -17455-2 0  9993
2 44261  53.0003 244.1365 0002068  89.2017 345.0307 15.12148856 45965
1 44261U 19029AC  20083.91667824  .00032544  00000-0  18755-2 0  9990
2 44261  53.0010 238.4683 0001978  86.9224 315.7483 15.12129467 46153
1 44261U 19029AC  20084.56982043 -.00002034 +00000-0 -99625-4 0  9995
2 44261 053.0003 235.5052 0002025 100.7847 259.3372 15.12126016045317
1 44261U 19029AC  20084.58334491  .00066697  00000-0  38070-2 0  9993
2 44261  53.0014 235.4442 0001934  92.3965 341.4443 15.12135970 46251
1 44261U 19029AC  20084.91667824  .00025455  00000-0  14731-2 0  9994
2 44261  53.0013 233.9334 0001780  88.2154   1.1805 15.12105785 46305
